{
  "norad_id": 63231,
  "name": "M-SEL/CORTEZ",
  "history": [
    {
      "epoch": "2026-04-10T10:43:46.878240Z",
      "apogee_km": 494.6618177357004,
      "perigee_km": 486.2107251824973,
      "latitude_deg": 4.661365448356307e-05,
      "longitude_deg": -4.874715620178336,
      "height_km": 490.5501799446785,
      "semi_major_axis_km": 6868.573271459099,
      "eccentricity": 0.0006152,
      "inclination_deg": 97.3989,
      "raan_deg": 354.7514,
      "arg_perigee_deg": 45.245,
      "mean_anomaly_deg": 314.9288,
      "mean_motion_rev_day": 15.25116286
    },
    {
      "epoch": "2026-04-11T10:20:58.142400Z",
      "apogee_km": 494.55145699093555,
      "perigee_km": 486.2446506968172,
      "latitude_deg": 2.6393365671142678e-05,
      "longitude_deg": 0.8310204640405738,
      "height_km": 490.4128464537727,
      "semi_major_axis_km": 6868.535053843876,
      "eccentricity": 0.0006047,
      "inclination_deg": 97.3991,
      "raan_deg": 355.7241,
      "arg_perigee_deg": 42.2414,
      "mean_anomaly_deg": 317.9289,
      "mean_motion_rev_day": 15.25129015
    },
    {
      "epoch": "2026-04-13T03:17:23.967744Z",
      "apogee_km": 494.3878376072371,
      "perigee_km": 486.28674691848573,
      "latitude_deg": 1.1337965805057021e-05,
      "longitude_deg": 106.72794861454506,
      "height_km": 490.2171331125186,
      "semi_major_axis_km": 6868.474292262861,
      "eccentricity": 0.00058973,
      "inclination_deg": 97.3992,
      "raan_deg": 357.41,
      "arg_perigee_deg": 37.5645,
      "mean_anomaly_deg": 322.6004,
      "mean_motion_rev_day": 15.25149253
    },
    {
      "epoch": "2026-04-14T15:30:22.423968Z",
      "apogee_km": 494.24829008642246,
      "perigee_km": 486.33997847840965,
      "latitude_deg": 8.486100053341398e-06,
      "longitude_deg": -76.51126517135553,
      "height_km": 490.083904519423,
      "semi_major_axis_km": 6868.431134282416,
      "eccentricity": 0.0005757,
      "inclination_deg": 97.3993,
      "raan_deg": 358.9017,
      "arg_perigee_deg": 33.3864,
      "mean_anomaly_deg": 326.7736,
      "mean_motion_rev_day": 15.25163628
    },
    {
      "epoch": "2026-04-15T16:41:59.749152Z",
      "apogee_km": 494.13308915311063,
      "perigee_km": 486.39652135966935,
      "latitude_deg": 2.53645623030869e-05,
      "longitude_deg": -94.41365557702213,
      "height_km": 490.0039518947688,
      "semi_major_axis_km": 6868.40180525639,
      "eccentricity": 0.0005632,
      "inclination_deg": 97.3994,
      "raan_deg": 359.9395,
      "arg_perigee_deg": 29.9139,
      "mean_anomaly_deg": 330.242,
      "mean_motion_rev_day": 15.25173397
    },
    {
      "epoch": "2026-04-16T14:44:39.529824Z",
      "apogee_km": 494.0482376089949,
      "perigee_km": 486.4325807377045,
      "latitude_deg": -3.910384404264073e-05,
      "longitude_deg": -65.07672894222046,
      "height_km": 489.9435082673824,
      "semi_major_axis_km": 6868.377409173349,
      "eccentricity": 0.0005544,
      "inclination_deg": 97.3992,
      "raan_deg": 0.8475,
      "arg_perigee_deg": 27.1084,
      "mean_anomaly_deg": 333.0442,
      "mean_motion_rev_day": 15.25181523
    },
    {
      "epoch": "2026-04-17T15:56:15.910656Z",
      "apogee_km": 493.9473850790546,
      "perigee_km": 486.4709155605851,
      "latitude_deg": 3.99846634032856e-05,
      "longitude_deg": -82.97538223797378,
      "height_km": 489.89264623831934,
      "semi_major_axis_km": 6868.34615031982,
      "eccentricity": 0.00054427,
      "inclination_deg": 97.3989,
      "raan_deg": 1.8851,
      "arg_perigee_deg": 24.202,
      "mean_anomaly_deg": 335.9473,
      "mean_motion_rev_day": 15.25191935
    },
    {
      "epoch": "2026-04-18T12:24:26.119008Z",
      "apogee_km": 493.8426803172915,
      "perigee_km": 486.493319235331,
      "latitude_deg": 9.325457443511652e-05,
      "longitude_deg": -30.01567612113493,
      "height_km": 489.85080254405824,
      "semi_major_axis_km": 6868.304999776311,
      "eccentricity": 0.00053502,
      "inclination_deg": 97.3985,
      "raan_deg": 2.728,
      "arg_perigee_deg": 21.8454,
      "mean_anomaly_deg": 338.3012,
      "mean_motion_rev_day": 15.25205642
    },
    {
      "epoch": "2026-04-19T10:27:04.311648Z",
      "apogee_km": 493.7345676210398,
      "perigee_km": 486.541011337531,
      "latitude_deg": 1.7543447843521464e-06,
      "longitude_deg": -0.6723134024628042,
      "height_km": 489.83452318895917,
      "semi_major_axis_km": 6868.274789479286,
      "eccentricity": 0.00052368,
      "inclination_deg": 97.3981,
      "raan_deg": 3.6358,
      "arg_perigee_deg": 19.1672,
      "mean_anomaly_deg": 340.9762,
      "mean_motion_rev_day": 15.25215705
    },
    {
      "epoch": "2026-04-19T23:02:51.464832Z",
      "apogee_km": 493.68597504871923,
      "perigee_km": 486.5429935050706,
      "latitude_deg": 4.1240221573763296e-05,
      "longitude_deg": 170.38259218178638,
      "height_km": 489.8016386302217,
      "semi_major_axis_km": 6868.251484276894,
      "eccentricity": 0.00052,
      "inclination_deg": 97.3979,
      "raan_deg": 4.1545,
      "arg_perigee_deg": 17.4434,
      "mean_anomaly_deg": 342.6982,
      "mean_motion_rev_day": 15.25223468
    },
    {
      "epoch": "2026-04-21T15:59:08.202624Z",
      "apogee_km": 493.47960985473674,
      "perigee_km": 486.6031896409095,
      "latitude_deg": -1.2393710540623165e-05,
      "longitude_deg": -83.68270890743825,
      "height_km": 489.77988346667036,
      "semi_major_axis_km": 6868.178399747822,
      "eccentricity": 0.0005006,
      "inclination_deg": 97.3975,
      "raan_deg": 5.8402,
      "arg_perigee_deg": 12.495,
      "mean_anomaly_deg": 347.6411,
      "mean_motion_rev_day": 15.25247813
    },
    {
      "epoch": "2026-04-21T15:59:08.203488Z",
      "apogee_km": 493.47954117295194,
      "perigee_km": 486.60325832269245,
      "latitude_deg": -1.2152323327972138e-05,
      "longitude_deg": -83.6827125484644,
      "height_km": 489.77995053734935,
      "semi_major_axis_km": 6868.178399747822,
      "eccentricity": 0.00050059,
      "inclination_deg": 97.3975,
      "raan_deg": 5.8402,
      "arg_perigee_deg": 12.495,
      "mean_anomaly_deg": 347.6411,
      "mean_motion_rev_day": 15.25247813
    },
    {
      "epoch": "2026-04-23T12:04:18.994368Z",
      "apogee_km": 493.24874760105376,
      "perigee_km": 486.6855872586575,
      "latitude_deg": 1.493398725664054e-05,
      "longitude_deg": -24.973143514020343,
      "height_km": 489.80140903442714,
      "semi_major_axis_km": 6868.104167429855,
      "eccentricity": 0.0004778,
      "inclination_deg": 97.3974,
      "raan_deg": 7.6553,
      "arg_perigee_deg": 6.2677,
      "mean_anomaly_deg": 353.862,
      "mean_motion_rev_day": 15.25272541
    },
    {
      "epoch": "2026-04-24T16:24:45.974016Z",
      "apogee_km": 493.1061726229682,
      "perigee_km": 486.73124331483086,
      "latitude_deg": 7.560490308611017e-06,
      "longitude_deg": -90.08237569661344,
      "height_km": 489.83023160306226,
      "semi_major_axis_km": 6868.055707968899,
      "eccentricity": 0.0004641,
      "inclination_deg": 97.3975,
      "raan_deg": 8.8224,
      "arg_perigee_deg": 2.1343,
      "mean_anomaly_deg": 357.9914,
      "mean_motion_rev_day": 15.25288684
    },
    {
      "epoch": "2026-04-25T16:01:47.520768Z",
      "apogee_km": 492.9574532890474,
      "perigee_km": 486.7721308750988,
      "latitude_deg": 7.629303841663804e-05,
      "longitude_deg": -84.33604937613507,
      "height_km": 489.87003342041845,
      "semi_major_axis_km": 6868.001792082073,
      "eccentricity": 0.0004503,
      "inclination_deg": 97.3976,
      "raan_deg": 9.7951,
      "arg_perigee_deg": 358.7867,
      "mean_anomaly_deg": 1.336,
      "mean_motion_rev_day": 15.25306645
    },
    {
      "epoch": "2026-04-26T15:38:47.990976Z",
      "apogee_km": 492.79899530061084,
      "perigee_km": 486.7993036391581,
      "latitude_deg": 1.743221769294851e-05,
      "longitude_deg": -78.58520803343839,
      "height_km": 489.9082683072858,
      "semi_major_axis_km": 6867.936149469884,
      "eccentricity": 0.00043679,
      "inclination_deg": 97.3978,
      "raan_deg": 10.7678,
      "arg_perigee_deg": 355.0274,
      "mean_anomaly_deg": 5.092,
      "mean_motion_rev_day": 15.25328513
    },
    {
      "epoch": "2026-04-27T16:50:15.221184Z",
      "apogee_km": 492.6468640524845,
      "perigee_km": 486.8325196451651,
      "latitude_deg": 6.214219998942804e-05,
      "longitude_deg": -96.44562562672446,
      "height_km": 489.9664318505909,
      "semi_major_axis_km": 6867.8766918488245,
      "eccentricity": 0.0004233,
      "inclination_deg": 97.3979,
      "raan_deg": 11.8054,
      "arg_perigee_deg": 350.9998,
      "mean_anomaly_deg": 9.1164,
      "mean_motion_rev_day": 15.25348321
    },
    {
      "epoch": "2026-04-28T16:27:13.425120Z",
      "apogee_km": 492.52615182588943,
      "perigee_km": 486.8450889543037,
      "latitude_deg": 5.8207469970473854e-05,
      "longitude_deg": -90.68522233412033,
      "height_km": 490.0060436767615,
      "semi_major_axis_km": 6867.822620390097,
      "eccentricity": 0.0004136,
      "inclination_deg": 97.3978,
      "raan_deg": 12.7782,
      "arg_perigee_deg": 347.9575,
      "mean_anomaly_deg": 12.1564,
      "mean_motion_rev_day": 15.25366335
    },
    {
      "epoch": "2026-04-29T16:04:10.783200Z",
      "apogee_km": 492.41112550653816,
      "perigee_km": 486.86745648444685,
      "latitude_deg": -4.33511046164119e-06,
      "longitude_deg": -84.92117776222726,
      "height_km": 490.07861100345104,
      "semi_major_axis_km": 6867.776290995492,
      "eccentricity": 0.0004036,
      "inclination_deg": 97.3978,
      "raan_deg": 13.7511,
      "arg_perigee_deg": 343.6357,
      "mean_anomaly_deg": 16.475,
      "mean_motion_rev_day": 15.2538177
    }
  ]
}